{
"type": "FeatureCollection",
"name": "buildings",
"crs": { "type": "name", "properties": { "name": "urn:ogc:def:crs:EPSG::32652" } },
"features": [
{ "type": "Feature", "properties": { "id": 0 }, "geometry": { "type": "Polygon", "coordinates": [ [ [ 322272.806361064198427, 4162687.317037836648524 ], [ 322267.925346546282526, 4162726.950535451993346 ], [ 322221.675065104092937, 4162721.254639082588255 ], [ 322226.556079622008838, 4162681.621141467243433 ], [ 322272.806361064198427, 4162687.317037836648524 ] ] ] } },
{ "type": "Feature", "properties": { "id": 1 }, "geometry": { "type": "Polygon", "coordinates": [ [ [ 320969.177575559588149, 4157345.562489801086485 ], [ 320948.032388139748946, 4157379.582251764833927 ], [ 320902.756668474990875, 4157351.440856216941029 ], [ 320923.901855894830078, 4157317.421094253193587 ], [ 320969.177575559588149, 4157345.562489801086485 ] ] ] } },
{ "type": "Feature", "properties": { "id": 2 }, "geometry": { "type": "Polygon", "coordinates": [ [ [ 320150.522396506275982, 4162812.929002302698791 ], [ 320147.588189059635624, 4162833.33609131956473 ], [ 320096.491535043285694, 4162825.989223640877753 ], [ 320099.425742489926051, 4162805.582134624011815 ], [ 320150.522396506275982, 4162812.929002302698791 ] ] ] } },
{ "type": "Feature", "properties": { "id": 3 }, "geometry": { "type": "Polygon", "coordinates": [ [ [ 321121.656267539365217, 4158814.174618953373283 ], [ 321114.491856501204893, 4158844.948917985428125 ], [ 321079.197850701864809, 4158836.732296561822295 ], [ 321086.362261740025133, 4158805.957997529767454 ], [ 321121.656267539365217, 4158814.174618953373283 ] ] ] } },
{ "type": "Feature", "properties": { "id": 4 }, "geometry": { "type": "Polygon", "coordinates": [ [ [ 323687.60404209420085, 4157828.016256836708635 ], [ 323677.676121167140082, 4157854.537017193622887 ], [ 323654.630694573977962, 4157845.910070987418294 ], [ 323664.55861550103873, 4157819.389310630504042 ], [ 323687.60404209420085, 4157828.016256836708635 ] ] ] } },
{ "type": "Feature", "properties": { "id": 5 }, "geometry": { "type": "Polygon", "coordinates": [ [ [ 324729.622310849372298, 4158178.896784740965813 ], [ 324728.177185319480486, 4158218.491149675566703 ], [ 324692.489225866738707, 4158217.188601158559322 ], [ 324693.934351396630518, 4158177.594236223958433 ], [ 324729.622310849372298, 4158178.896784740965813 ] ] ] } },
{ "type": "Feature", "properties": { "id": 6 }, "geometry": { "type": "Polygon", "coordinates": [ [ [ 323669.833436039742082, 4158006.851709615439177 ], [ 323630.325278146658093, 4158048.552433879580349 ], [ 323620.704786777496338, 4158039.437774632591754 ], [ 323660.212944670580328, 4157997.737050368450582 ], [ 323669.833436039742082, 4158006.851709615439177 ] ] ] } },
{ "type": "Feature", "properties": { "id": 7 }, "geometry": { "type": "Polygon", "coordinates": [ [ [ 324864.876208333298564, 4158809.406225178390741 ], [ 324849.895063511328772, 4158851.00232370570302 ], [ 324835.891969064483419, 4158845.959004901815206 ], [ 324850.873113886453211, 4158804.362906374502927 ], [ 324864.876208333298564, 4158809.406225178390741 ] ] ] } },
{ "type": "Feature", "properties": { "id": 8 }, "geometry": { "type": "Polygon", "coordinates": [ [ [ 320743.56638757570181, 4159945.082064954098314 ], [ 320732.370631825528108, 4159999.406409766990691 ], [ 320720.892430561594665, 4159997.040856381412596 ], [ 320732.088186311651953, 4159942.716511568520218 ], [ 320743.56638757570181, 4159945.082064954098314 ] ] ] } },
{ "type": "Feature", "properties": { "id": 9 }, "geometry": { "type": "Polygon", "coordinates": [ [ [ 323995.646770098712295, 4158854.399491510819644 ], [ 323990.245260494528338, 4158891.342207940295339 ], [ 323954.620642149064224, 4158886.133421561215073 ], [ 323960.022151753248181, 4158849.190705131739378 ], [ 323995.646770098712295, 4158854.399491510819644 ] ] ] } },
{ "type": "Feature", "properties": { "id": 10 }, "geometry": { "type": "Polygon", "coordinates": [ [ [ 325855.297377977287397, 4161639.280180674977601 ], [ 325830.525797989452258, 4161688.096019734628499 ], [ 325779.718155197799206, 4161662.313699658028781 ], [ 325804.489735185634345, 4161613.497860598843545 ], [ 325855.297377977287397, 4161639.280180674977601 ] ] ] } },
{ "type": "Feature", "properties": { "id": 11 }, "geometry": { "type": "Polygon", "coordinates": [ [ [ 325542.373062371276319, 4157527.525415048468858 ], [ 325539.274093198124319, 4157539.388696555513889 ], [ 325520.117757906205952, 4157534.384609574917704 ], [ 325523.216727079357952, 4157522.521328067872673 ], [ 325542.373062371276319, 4157527.525415048468858 ] ] ] } },
{ "type": "Feature", "properties": { "id": 12 }, "geometry": { "type": "Polygon", "coordinates": [ [ [ 322360.204936526948586, 4158620.141523850150406 ], [ 322354.112399666453712, 4158647.304304664488882 ], [ 322303.922539746854454, 4158636.046857436653227 ], [ 322310.015076607349329, 4158608.884076622314751 ], [ 322360.204936526948586, 4158620.141523850150406 ] ] ] } },
{ "type": "Feature", "properties": { "id": 13 }, "geometry": { "type": "Polygon", "coordinates": [ [ [ 323278.877698881551623, 4157858.175316169392318 ], [ 323269.271351229399443, 4157867.981601125560701 ], [ 323233.475299017503858, 4157832.915383527521044 ], [ 323243.081646669656038, 4157823.109098571352661 ], [ 323278.877698881551623, 4157858.175316169392318 ] ] ] } },
{ "type": "Feature", "properties": { "id": 14 }, "geometry": { "type": "Polygon", "coordinates": [ [ [ 324651.215817011892796, 4158173.428442336153239 ], [ 324624.454190784599632, 4158216.576097468845546 ], [ 324615.721414547879249, 4158211.159736073110253 ], [ 324642.483040775172412, 4158168.012080940417945 ], [ 324651.215817011892796, 4158173.428442336153239 ] ] ] } },
{ "type": "Feature", "properties": { "id": 15 }, "geometry": { "type": "Polygon", "coordinates": [ [ [ 324382.134578252269421, 4161614.340823755133897 ], [ 324379.596971705555916, 4161642.148565085139126 ], [ 324365.951438239600975, 4161640.903336476068944 ], [ 324368.48904478631448, 4161613.095595146063715 ], [ 324382.134578252269421, 4161614.340823755133897 ] ] ] } },
{ "type": "Feature", "properties": { "id": 16 }, "geometry": { "type": "Polygon", "coordinates": [ [ [ 325193.092448790208437, 4160736.604954993817955 ], [ 325189.905715385801159, 4160749.391754445619881 ], [ 325164.148661716957577, 4160742.972566936165094 ], [ 325167.335395121364854, 4160730.185767484363168 ], [ 325193.092448790208437, 4160736.604954993817955 ] ] ] } },
{ "type": "Feature", "properties": { "id": 17 }, "geometry": { "type": "Polygon", "coordinates": [ [ [ 321980.466265669092536, 4161359.8936981074512 ], [ 321960.764193352079019, 4161410.558352605439723 ], [ 321921.733598651364446, 4161395.380441949702799 ], [ 321941.435670968377963, 4161344.715787451714277 ], [ 321980.466265669092536, 4161359.8936981074512 ] ] ] } },
{ "type": "Feature", "properties": { "id": 18 }, "geometry": { "type": "Polygon", "coordinates": [ [ [ 320748.147332954220474, 4161277.492159828543663 ], [ 320726.481894654221833, 4161308.78858473803848 ], [ 320686.983618304599077, 4161281.445286847651005 ], [ 320708.649056604132056, 4161250.148861938156188 ], [ 320748.147332954220474, 4161277.492159828543663 ] ] ] } },
{ "type": "Feature", "properties": { "id": 19 }, "geometry": { "type": "Polygon", "coordinates": [ [ [ 322978.882778081519064, 4160132.109538362361491 ], [ 322977.928845415532123, 4160143.340053454507142 ], [ 322946.664378291112371, 4160140.684414222370833 ], [ 322947.618310957099311, 4160129.453899130225182 ], [ 322978.882778081519064, 4160132.109538362361491 ] ] ] } },
{ "type": "Feature", "properties": { "id": 20 }, "geometry": { "type": "Polygon", "coordinates": [ [ [ 320209.887638110667467, 4160813.470185195095837 ], [ 320186.718956110533327, 4160840.273043910041451 ], [ 320167.262590130791068, 4160823.454749971162528 ], [ 320190.431272130925208, 4160796.651891256216913 ], [ 320209.887638110667467, 4160813.470185195095837 ] ] ] } },
{ "type": "Feature", "properties": { "id": 21 }, "geometry": { "type": "Polygon", "coordinates": [ [ [ 321520.246237520303112, 4159453.040603866335005 ], [ 321518.950772819516715, 4159474.441338386852294 ], [ 321471.260512266249862, 4159471.55447256192565 ], [ 321472.555976967036258, 4159450.15373804140836 ], [ 321520.246237520303112, 4159453.040603866335005 ] ] ] } },
{ "type": "Feature", "properties": { "id": 22 }, "geometry": { "type": "Polygon", "coordinates": [ [ [ 321775.354974603746086, 4157958.657053737901151 ], [ 321751.300851000705734, 4158002.953395425342023 ], [ 321701.662460361607373, 4157975.998393310233951 ], [ 321725.716583964647725, 4157931.702051622793078 ], [ 321775.354974603746086, 4157958.657053737901151 ] ] ] } },
{ "type": "Feature", "properties": { "id": 23 }, "geometry": { "type": "Polygon", "coordinates": [ [ [ 325248.800855998182669, 4161801.105039252899587 ], [ 325226.346393849467859, 4161850.904738474171609 ], [ 325208.726226254599169, 4161842.959883535280824 ], [ 325231.18068840331398, 4161793.160184314008802 ], [ 325248.800855998182669, 4161801.105039252899587 ] ] ] } },
{ "type": "Feature", "properties": { "id": 24 }, "geometry": { "type": "Polygon", "coordinates": [ [ [ 324858.764294867403805, 4162371.226336854510009 ], [ 324856.00382226286456, 4162386.48118135612458 ], [ 324830.517567101342138, 4162381.869262227322906 ], [ 324833.278039705881383, 4162366.614417725708336 ], [ 324858.764294867403805, 4162371.226336854510009 ] ] ] } },
{ "type": "Feature", "properties": { "id": 25 }, "geometry": { "type": "Polygon", "coordinates": [ [ [ 322589.080087746493518, 4161913.680043270811439 ], [ 322585.039677564054728, 4161923.206220174208283 ], [ 322536.213375768624246, 4161902.497147799469531 ], [ 322540.253785951063037, 4161892.970970896072686 ], [ 322589.080087746493518, 4161913.680043270811439 ] ] ] } },
{ "type": "Feature", "properties": { "id": 26 }, "geometry": { "type": "Polygon", "coordinates": [ [ [ 322519.436501335352659, 4158328.121975088492036 ], [ 322501.30002621980384, 4158347.962424974422902 ], [ 322489.49553645029664, 4158337.171750559937209 ], [ 322507.63201156584546, 4158317.331300674006343 ], [ 322519.436501335352659, 4158328.121975088492036 ] ] ] } },
{ "type": "Feature", "properties": { "id": 27 }, "geometry": { "type": "Polygon", "coordinates": [ [ [ 321965.271108073182404, 4160118.167316656094044 ], [ 321945.790285007562488, 4160138.531337731517851 ], [ 321913.164076176472008, 4160107.320144264493138 ], [ 321932.644899242091924, 4160086.956123189069331 ], [ 321965.271108073182404, 4160118.167316656094044 ] ] ] } },
{ "type": "Feature", "properties": { "id": 28 }, "geometry": { "type": "Polygon", "coordinates": [ [ [ 325794.458622368867509, 4158502.35100561613217 ], [ 325788.902584291878156, 4158526.770836573559791 ], [ 325754.908916936721653, 4158519.036544287577271 ], [ 325760.46495501359459, 4158494.616713330149651 ], [ 325794.458622368867509, 4158502.35100561613217 ] ] ] } },
{ "type": "Feature", "properties": { "id": 29 }, "geometry": { "type": "Polygon", "coordinates": [ [ [ 320239.834590633283369, 4160655.062880936078727 ], [ 320237.104717671987601, 4160667.336906332522631 ], [ 320202.808777621248737, 4160659.709126822650433 ], [ 320205.538650582544506, 4160647.435101426206529 ], [ 320239.834590633283369, 4160655.062880936078727 ] ] ] } },
{ "type": "Feature", "properties": { "id": 30 }, "geometry": { "type": "Polygon", "coordinates": [ [ [ 325467.810365658719093, 4158431.074682423844934 ], [ 325443.710790054872632, 4158455.723682958167046 ], [ 325431.380265940446407, 4158443.668005580082536 ], [ 325455.479841544292867, 4158419.019005045760423 ], [ 325467.810365658719093, 4158431.074682423844934 ] ] ] } },
{ "type": "Feature", "properties": { "id": 31 }, "geometry": { "type": "Polygon", "coordinates": [ [ [ 321478.468076158780605, 4161036.625822807196528 ], [ 321466.624200770165771, 4161055.025256645400077 ], [ 321426.195181979099289, 4161029.000746063422412 ], [ 321438.039057367714122, 4161010.601312224753201 ], [ 321478.468076158780605, 4161036.625822807196528 ] ] ] } },
{ "type": "Feature", "properties": { "id": 32 }, "geometry": { "type": "Polygon", "coordinates": [ [ [ 322228.787980763940141, 4160776.963319944683462 ], [ 322226.181351766979787, 4160813.659592911135405 ], [ 322184.609611867170315, 4160810.706647178158164 ], [ 322187.216240864130668, 4160774.010374211706221 ], [ 322228.787980763940141, 4160776.963319944683462 ] ] ] } },
{ "type": "Feature", "properties": { "id": 33 }, "geometry": { "type": "Polygon", "coordinates": [ [ [ 325023.150203034281731, 4158923.622874105349183 ], [ 325017.761584709631279, 4158934.388303243555129 ], [ 325000.479744036914781, 4158925.737905554939061 ], [ 325005.868362361798063, 4158914.972476416733116 ], [ 325023.150203034281731, 4158923.622874105349183 ] ] ] } },
{ "type": "Feature", "properties": { "id": 34 }, "geometry": { "type": "Polygon", "coordinates": [ [ [ 324086.126062038121745, 4157098.844036414287984 ], [ 324075.776931796222925, 4157117.489199831616133 ], [ 324044.646280068904161, 4157100.209910719655454 ], [ 324054.995410310802981, 4157081.564747302327305 ], [ 324086.126062038121745, 4157098.844036414287984 ] ] ] } },
{ "type": "Feature", "properties": { "id": 35 }, "geometry": { "type": "Polygon", "coordinates": [ [ [ 321063.84493473317707, 4161118.955014139413834 ], [ 321057.718027348746546, 4161175.460311892442405 ], [ 321028.552213326620404, 4161172.297843090258539 ], [ 321034.679120711050928, 4161115.792545337229967 ], [ 321063.84493473317707, 4161118.955014139413834 ] ] ] } },
{ "type": "Feature", "properties": { "id": 36 }, "geometry": { "type": "Polygon", "coordinates": [ [ [ 322079.359553402406164, 4157660.115771214012057 ], [ 322068.521305197034962, 4157712.881125203799456 ], [ 322013.436659200699069, 4157701.566483673639596 ], [ 322024.27490740607027, 4157648.801129683852196 ], [ 322079.359553402406164, 4157660.115771214012057 ] ] ] } },
{ "type": "Feature", "properties": { "id": 37 }, "geometry": { "type": "Polygon", "coordinates": [ [ [ 323981.888848694623448, 4161888.984770364128053 ], [ 323975.000577542581595, 4161924.811110349837691 ], [ 323937.919703715480864, 4161917.681632050313056 ], [ 323944.807974867522717, 4161881.855292064603418 ], [ 323981.888848694623448, 4161888.984770364128053 ] ] ] } },
{ "type": "Feature", "properties": { "id": 38 }, "geometry": { "type": "Polygon", "coordinates": [ [ [ 320590.638056578114629, 4162370.440055586397648 ], [ 320579.677024833159521, 4162410.627129109110683 ], [ 320526.595157092669979, 4162396.149039853364229 ], [ 320537.556188837625086, 4162355.961966330651194 ], [ 320590.638056578114629, 4162370.440055586397648 ] ] ] } },
{ "type": "Feature", "properties": { "id": 39 }, "geometry": { "type": "Polygon", "coordinates": [ [ [ 322133.323836988769472, 4161349.266470118891448 ], [ 322102.074163733515888, 4161393.739497405011207 ], [ 322057.191058363299817, 4161362.201676323544234 ], [ 322088.4407316185534, 4161317.728649037424475 ], [ 322133.323836988769472, 4161349.266470118891448 ] ] ] } },
{ "type": "Feature", "properties": { "id": 40 }, "geometry": { "type": "Polygon", "coordinates": [ [ [ 323872.816118442919105, 4157484.577607070561498 ], [ 323847.632658102083951, 4157533.392016706522554 ], [ 323831.563635408179834, 4157525.101972870063037 ], [ 323856.747095749014989, 4157476.287563234101981 ], [ 323872.816118442919105, 4157484.577607070561498 ] ] ] } },
{ "type": "Feature", "properties": { "id": 41 }, "geometry": { "type": "Polygon", "coordinates": [ [ [ 320077.243661787244491, 4157606.462779203895479 ], [ 320075.95215475151781, 4157616.634192208293825 ], [ 320033.120957612292841, 4157611.195735188666731 ], [ 320034.412464648019522, 4157601.024322184268385 ], [ 320077.243661787244491, 4157606.462779203895479 ] ] ] } },
{ "type": "Feature", "properties": { "id": 42 }, "geometry": { "type": "Polygon", "coordinates": [ [ [ 323316.084120448678732, 4161153.682800677604973 ], [ 323304.827608694322407, 4161171.663403016980737 ], [ 323268.721351950662211, 4161149.059571634046733 ], [ 323279.977863705018535, 4161131.078969294670969 ], [ 323316.084120448678732, 4161153.682800677604973 ] ] ] } },
{ "type": "Feature", "properties": { "id": 43 }, "geometry": { "type": "Polygon", "coordinates": [ [ [ 321455.225737748201936, 4158950.347234727349132 ], [ 321428.94596157129854, 4158983.724824843462557 ], [ 321391.763312213122845, 4158954.449143184348941 ], [ 321418.043088390026242, 4158921.071553068235517 ], [ 321455.225737748201936, 4158950.347234727349132 ] ] ] } },
{ "type": "Feature", "properties": { "id": 44 }, "geometry": { "type": "Polygon", "coordinates": [ [ [ 323955.795437214081176, 4160397.483689627610147 ], [ 323949.925635403371416, 4160425.255951136816293 ], [ 323935.559270389843732, 4160422.219550397712737 ], [ 323941.429072200553492, 4160394.447288888506591 ], [ 323955.795437214081176, 4160397.483689627610147 ] ] ] } },
{ "type": "Feature", "properties": { "id": 45 }, "geometry": { "type": "Polygon", "coordinates": [ [ [ 321489.96626049792394, 4162821.100752049125731 ], [ 321463.995033596642315, 4162869.131050506606698 ], [ 321437.909460050985217, 4162855.025904980488122 ], [ 321463.880686952266842, 4162806.995606523007154 ], [ 321489.96626049792394, 4162821.100752049125731 ] ] ] } },
{ "type": "Feature", "properties": { "id": 46 }, "geometry": { "type": "Polygon", "coordinates": [ [ [ 324790.70694658573484, 4160001.679438185412437 ], [ 324785.418077069625724, 4160035.899019566364586 ], [ 324747.028695914021228, 4160029.965679076965898 ], [ 324752.317565430130344, 4159995.746097696013749 ], [ 324790.70694658573484, 4160001.679438185412437 ] ] ] } },
{ "type": "Feature", "properties": { "id": 47 }, "geometry": { "type": "Polygon", "coordinates": [ [ [ 324343.19713122403482, 4158664.479089835193008 ], [ 324337.335715166933369, 4158706.344377480912954 ], [ 324326.228251913969871, 4158704.789259455166757 ], [ 324332.089667971071322, 4158662.923971809446812 ], [ 324343.19713122403482, 4158664.479089835193008 ] ] ] } },
{ "type": "Feature", "properties": { "id": 48 }, "geometry": { "type": "Polygon", "coordinates": [ [ [ 325670.794095369405113, 4162709.656886632554233 ], [ 325670.448028991988394, 4162738.162721066270024 ], [ 325614.708916865405627, 4162737.486037398222834 ], [ 325615.054983242822345, 4162708.980202964507043 ], [ 325670.794095369405113, 4162709.656886632554233 ] ] ] } },
{ "type": "Feature", "properties": { "id": 49 }, "geometry": { "type": "Polygon", "coordinates": [ [ [ 325610.837176240049303, 4159564.413071538321674 ], [ 325574.709777528885752, 4159610.018330994527787 ], [ 325528.985574812162668, 4159573.796708269044757 ], [ 325565.112973523326218, 4159528.191448812372983 ], [ 325610.837176240049303, 4159564.413071538321674 ] ] ] } },
{ "type": "Feature", "properties": { "id": 50 }, "geometry": { "type": "Polygon", "coordinates": [ [ [ 321794.454507193993777, 4159301.265497243497521 ], [ 321791.02404533745721, 4159326.882929393555969 ], [ 321738.932197641057428, 4159319.907245979644358 ], [ 321742.362659497593995, 4159294.289813829120249 ], [ 321794.454507193993777, 4159301.265497243497521 ] ] ] } },
{ "type": "Feature", "properties": { "id": 51 }, "geometry": { "type": "Polygon", "coordinates": [ [ [ 323364.611001978744753, 4162599.441175063606352 ], [ 323361.675214456918184, 4162637.832146213389933 ], [ 323317.004147521394771, 4162634.416114865802228 ], [ 323319.93993504322134, 4162596.025143716018647 ], [ 323364.611001978744753, 4162599.441175063606352 ] ] ] } },
{ "type": "Feature", "properties": { "id": 52 }, "geometry": { "type": "Polygon", "coordinates": [ [ [ 323708.023949556518346, 4162931.868365384172648 ], [ 323685.187067421153188, 4162959.589666543994099 ], [ 323672.06277083279565, 4162948.777835866436362 ], [ 323694.899652968160808, 4162921.056534706614912 ], [ 323708.023949556518346, 4162931.868365384172648 ] ] ] } },
{ "type": "Feature", "properties": { "id": 53 }, "geometry": { "type": "Polygon", "coordinates": [ [ [ 324469.773418708937243, 4161173.633910597767681 ], [ 324463.379874560283497, 4161200.868052110541612 ], [ 324419.449994341470301, 4161190.55498134624213 ], [ 324425.843538490124047, 4161163.320839833468199 ], [ 324469.773418708937243, 4161173.633910597767681 ] ] ] } },
{ "type": "Feature", "properties": { "id": 54 }, "geometry": { "type": "Polygon", "coordinates": [ [ [ 324891.600267166504636, 4161845.49168038321659 ], [ 324869.842073272680864, 4161896.724895372521132 ], [ 324820.733598575694486, 4161875.869055767077953 ], [ 324842.491792469518259, 4161824.63584077777341 ], [ 324891.600267166504636, 4161845.49168038321659 ] ] ] } },
{ "type": "Feature", "properties": { "id": 55 }, "geometry": { "type": "Polygon", "coordinates": [ [ [ 323039.523544687312096, 4161783.917745472397655 ], [ 323013.136110963765532, 4161820.490467009600252 ], [ 322978.671991558745503, 4161795.62440212816 ], [ 323005.059425282292068, 4161759.051680590491742 ], [ 323039.523544687312096, 4161783.917745472397655 ] ] ] } },
{ "type": "Feature", "properties": { "id": 56 }, "geometry": { "type": "Polygon", "coordinates": [ [ [ 325356.187260406557471, 4159027.679558751638979 ], [ 325349.738388252910227, 4159040.888476205989718 ], [ 325323.876841404242441, 4159028.262323466129601 ], [ 325330.325713557656854, 4159015.053406011778861 ], [ 325356.187260406557471, 4159027.679558751638979 ] ] ] } },
{ "type": "Feature", "properties": { "id": 57 }, "geometry": { "type": "Polygon", "coordinates": [ [ [ 320237.700385811505839, 4159791.020371675956994 ], [ 320226.812469533411786, 4159812.774894291069359 ], [ 320193.606899749487638, 4159796.155845913104713 ], [ 320204.494816027581692, 4159774.40132329845801 ], [ 320237.700385811505839, 4159791.020371675956994 ] ] ] } },
{ "type": "Feature", "properties": { "id": 58 }, "geometry": { "type": "Polygon", "coordinates": [ [ [ 320209.83458300656639, 4157212.701022462919354 ], [ 320207.044062188942917, 4157240.571201514918357 ], [ 320156.16841626202222, 4157235.477242527529597 ], [ 320158.958937079645693, 4157207.607063475530595 ], [ 320209.83458300656639, 4157212.701022462919354 ] ] ] } },
{ "type": "Feature", "properties": { "id": 59 }, "geometry": { "type": "Polygon", "coordinates": [ [ [ 323145.209701982152183, 4161600.131566072814167 ], [ 323142.45377779530827, 4161641.183688062708825 ], [ 323121.709418675454799, 4161639.791071109473705 ], [ 323124.465342862298712, 4161598.738949119579047 ], [ 323145.209701982152183, 4161600.131566072814167 ] ] ] } },
{ "type": "Feature", "properties": { "id": 60 }, "geometry": { "type": "Polygon", "coordinates": [ [ [ 320336.97852944326587, 4160180.501005386933684 ], [ 320314.373783454997465, 4160215.746537849772722 ], [ 320283.202124579111114, 4160195.754573430866003 ], [ 320305.806870567379519, 4160160.509040968026966 ], [ 320336.97852944326587, 4160180.501005386933684 ] ] ] } },
{ "type": "Feature", "properties": { "id": 61 }, "geometry": { "type": "Polygon", "coordinates": [ [ [ 325873.144092686241493, 4160076.243211718276143 ], [ 325862.639368898118846, 4160124.881053815130144 ], [ 325837.080860864371061, 4160119.360967895016074 ], [ 325847.585584652493708, 4160070.723125798162073 ], [ 325873.144092686241493, 4160076.243211718276143 ] ] ] } },
{ "type": "Feature", "properties": { "id": 62 }, "geometry": { "type": "Polygon", "coordinates": [ [ [ 322656.033240006770939, 4157451.154250395484269 ], [ 322620.548668540548533, 4157497.200135425664485 ], [ 322611.623808460775763, 4157490.322325712069869 ], [ 322647.108379926998168, 4157444.276440681889653 ], [ 322656.033240006770939, 4157451.154250395484269 ] ] ] } },
{ "type": "Feature", "properties": { "id": 63 }, "geometry": { "type": "Polygon", "coordinates": [ [ [ 324186.738031119457446, 4159446.800692004151642 ], [ 324183.257825732929632, 4159464.279438639525324 ], [ 324164.952442005160265, 4159460.634640967007726 ], [ 324168.432647391688079, 4159443.155894331634045 ], [ 324186.738031119457446, 4159446.800692004151642 ] ] ] } },
{ "type": "Feature", "properties": { "id": 64 }, "geometry": { "type": "Polygon", "coordinates": [ [ [ 323319.273745288606733, 4161293.453866649884731 ], [ 323302.917555767577142, 4161311.012808187864721 ], [ 323271.446231184992939, 4161281.697205750271678 ], [ 323287.802420706022531, 4161264.138264212291688 ], [ 323319.273745288606733, 4161293.453866649884731 ] ] ] } },
{ "type": "Feature", "properties": { "id": 65 }, "geometry": { "type": "Polygon", "coordinates": [ [ [ 324450.286488398152869, 4160314.850084763020277 ], [ 324444.296747102227528, 4160345.245538249146193 ], [ 324404.476511950895656, 4160337.398545375093818 ], [ 324410.466253246820997, 4160307.003091888967901 ], [ 324450.286488398152869, 4160314.850084763020277 ] ] ] } },
{ "type": "Feature", "properties": { "id": 66 }, "geometry": { "type": "Polygon", "coordinates": [ [ [ 322141.477844712440856, 4161539.373614630196244 ], [ 322140.906977536273189, 4161555.166932706721127 ], [ 322130.194299102644436, 4161554.779710942413658 ], [ 322130.765166278812103, 4161538.986392865888774 ], [ 322141.477844712440856, 4161539.373614630196244 ] ] ] } },
{ "type": "Feature", "properties": { "id": 67 }, "geometry": { "type": "Polygon", "coordinates": [ [ [ 320268.191394218825735, 4162117.693080833181739 ], [ 320265.603807850799058, 4162151.302309868857265 ], [ 320220.554233608709183, 4162147.833927298430353 ], [ 320223.14181997673586, 4162114.224698262754828 ], [ 320268.191394218825735, 4162117.693080833181739 ] ] ] } },
{ "type": "Feature", "properties": { "id": 68 }, "geometry": { "type": "Polygon", "coordinates": [ [ [ 322963.451103422557935, 4159828.626886157784611 ], [ 322953.692961057880893, 4159858.779803772922605 ], [ 322935.939397979294881, 4159853.03436320880428 ], [ 322945.697540343971923, 4159822.881445593666285 ], [ 322963.451103422557935, 4159828.626886157784611 ] ] ] } },
{ "type": "Feature", "properties": { "id": 69 }, "geometry": { "type": "Polygon", "coordinates": [ [ [ 323707.287422839552164, 4160800.791944328229874 ], [ 323693.726787569001317, 4160826.120945754926652 ], [ 323682.913753786822781, 4160820.33186608273536 ], [ 323696.474389057373628, 4160795.002864656038582 ], [ 323707.287422839552164, 4160800.791944328229874 ] ] ] } },
{ "type": "Feature", "properties": { "id": 70 }, "geometry": { "type": "Polygon", "coordinates": [ [ [ 323040.754557774285786, 4162131.068827980197966 ], [ 323039.749298501876183, 4162149.187684171367437 ], [ 322996.880545186810195, 4162146.809266278520226 ], [ 322997.885804459219798, 4162128.690410087350756 ], [ 323040.754557774285786, 4162131.068827980197966 ] ] ] } },
{ "type": "Feature", "properties": { "id": 71 }, "geometry": { "type": "Polygon", "coordinates": [ [ [ 323884.63720731716603, 4157142.004067922476679 ], [ 323859.737754770787433, 4157193.290808621328324 ], [ 323824.394131158245727, 4157176.131658576894552 ], [ 323849.293583704857156, 4157124.844917878042907 ], [ 323884.63720731716603, 4157142.004067922476679 ] ] ] } },
{ "type": "Feature", "properties": { "id": 72 }, "geometry": { "type": "Polygon", "coordinates": [ [ [ 322353.739503996446729, 4160857.046024886891246 ], [ 322328.617326322942972, 4160884.591209224425256 ], [ 322304.299610481597483, 4160862.412596421781927 ], [ 322329.42178815510124, 4160834.867412084247917 ], [ 322353.739503996446729, 4160857.046024886891246 ] ] ] } },
{ "type": "Feature", "properties": { "id": 73 }, "geometry": { "type": "Polygon", "coordinates": [ [ [ 322344.747362908790819, 4162758.767922271974385 ], [ 322343.669835440116003, 4162778.528121929615736 ], [ 322288.484290700522251, 4162775.518843614961952 ], [ 322289.561818169197068, 4162755.758643957320601 ], [ 322344.747362908790819, 4162758.767922271974385 ] ] ] } },
{ "type": "Feature", "properties": { "id": 74 }, "geometry": { "type": "Polygon", "coordinates": [ [ [ 320613.251191000104882, 4157087.701633854303509 ], [ 320610.783968192583416, 4157131.782981569413096 ], [ 320596.084825529076625, 4157130.960273963864893 ], [ 320598.552048336598091, 4157086.878926248755306 ], [ 320613.251191000104882, 4157087.701633854303509 ] ] ] } },
{ "type": "Feature", "properties": { "id": 75 }, "geometry": { "type": "Polygon", "coordinates": [ [ [ 321924.867908596177585, 4162045.734597220085561 ], [ 321913.73083706095349, 4162095.220265781972557 ], [ 321902.83965492900461, 4162092.769134413450956 ], [ 321913.976726464228705, 4162043.28346585156396 ], [ 321924.867908596177585, 4162045.734597220085561 ] ] ] } },
{ "type": "Feature", "properties": { "id": 76 }, "geometry": { "type": "Polygon", "coordinates": [ [ [ 320741.055445980047807, 4161169.16251000855118 ], [ 320711.652143012965098, 4161214.304625870659947 ], [ 320676.922485479153693, 4161191.683474360499531 ], [ 320706.325788446236402, 4161146.541358498390764 ], [ 320741.055445980047807, 4161169.16251000855118 ] ] ] } },
{ "type": "Feature", "properties": { "id": 77 }, "geometry": { "type": "Polygon", "coordinates": [ [ [ 324842.561514613684267, 4158678.643343373667449 ], [ 324814.417635222431272, 4158716.945994298439473 ], [ 324799.209650004748255, 4158705.771527481731027 ], [ 324827.35352939600125, 4158667.468876556959003 ], [ 324842.561514613684267, 4158678.643343373667449 ] ] ] } },
{ "type": "Feature", "properties": { "id": 78 }, "geometry": { "type": "Polygon", "coordinates": [ [ [ 325963.278159699169919, 4159455.9471803936176 ], [ 325950.36599031323567, 4159503.029359150212258 ], [ 325922.783544308971614, 4159495.464942543301731 ], [ 325935.695713694905862, 4159448.382763786707073 ], [ 325963.278159699169919, 4159455.9471803936176 ] ] ] } },
{ "type": "Feature", "properties": { "id": 79 }, "geometry": { "type": "Polygon", "coordinates": [ [ [ 325610.86476525105536, 4162139.541101993061602 ], [ 325584.310105349402875, 4162178.977627023123205 ], [ 325558.223141991067678, 4162161.411920122802258 ], [ 325584.777801892720163, 4162121.975395092740655 ], [ 325610.86476525105536, 4162139.541101993061602 ] ] ] } },
{ "type": "Feature", "properties": { "id": 80 }, "geometry": { "type": "Polygon", "coordinates": [ [ [ 320642.203139551449567, 4162394.847846870776266 ], [ 320629.437723440816626, 4162444.557820476125926 ], [ 320595.283286479767412, 4162435.787033283617347 ], [ 320608.048702590167522, 4162386.077059678267688 ], [ 320642.203139551449567, 4162394.847846870776266 ] ] ] } },
{ "type": "Feature", "properties": { "id": 81 }, "geometry": { "type": "Polygon", "coordinates": [ [ [ 325380.376371153339278, 4159308.024102280847728 ], [ 325376.417170379951131, 4159363.151210074778646 ], [ 325365.902370801079087, 4159362.396042530424893 ], [ 325369.861571574467234, 4159307.268934736493975 ], [ 325380.376371153339278, 4159308.024102280847728 ] ] ] } },
{ "type": "Feature", "properties": { "id": 82 }, "geometry": { "type": "Polygon", "coordinates": [ [ [ 321950.38361045345664, 4162697.06405438343063 ], [ 321931.97092470782809, 4162731.071236280258745 ], [ 321881.380040631629527, 4162703.679550226312131 ], [ 321899.792726377258077, 4162669.672368329484016 ], [ 321950.38361045345664, 4162697.06405438343063 ] ] ] } },
{ "type": "Feature", "properties": { "id": 83 }, "geometry": { "type": "Polygon", "coordinates": [ [ [ 322713.801066725049168, 4158748.513686490245163 ], [ 322689.496196272782981, 4158784.742051244713366 ], [ 322667.545197014231235, 4158770.015573886688799 ], [ 322691.850067466497421, 4158733.787209132220596 ], [ 322713.801066725049168, 4158748.513686490245163 ] ] ] } },
{ "type": "Feature", "properties": { "id": 84 }, "geometry": { "type": "Polygon", "coordinates": [ [ [ 324757.531518498784862, 4161720.695083825848997 ], [ 324755.962435947032645, 4161755.380626619793475 ], [ 324741.417006211297121, 4161754.722629709169269 ], [ 324742.986088763107546, 4161720.037086915224791 ], [ 324757.531518498784862, 4161720.695083825848997 ] ] ] } },
{ "type": "Feature", "properties": { "id": 85 }, "geometry": { "type": "Polygon", "coordinates": [ [ [ 323325.515592677693348, 4159637.964989696163684 ], [ 323322.986487047921401, 4159665.394390023779124 ], [ 323268.830995207070373, 4159660.401026783511043 ], [ 323271.360100836842321, 4159632.971626455895603 ], [ 323325.515592677693348, 4159637.964989696163684 ] ] ] } },
{ "type": "Feature", "properties": { "id": 86 }, "geometry": { "type": "Polygon", "coordinates": [ [ [ 320878.857853149413131, 4161562.902392108924687 ], [ 320877.864008287840988, 4161577.925688603892922 ], [ 320837.042331484495662, 4161575.225188500713557 ], [ 320838.036176346067805, 4161560.201892005745322 ], [ 320878.857853149413131, 4161562.902392108924687 ] ] ] } },
{ "type": "Feature", "properties": { "id": 87 }, "geometry": { "type": "Polygon", "coordinates": [ [ [ 324232.75570407952182, 4157415.599294696003199 ], [ 324229.862628918082919, 4157460.818953604903072 ], [ 324178.873873429954983, 4157457.556781673803926 ], [ 324181.766948591393884, 4157412.337122764904052 ], [ 324232.75570407952182, 4157415.599294696003199 ] ] ] } },
{ "type": "Feature", "properties": { "id": 88 }, "geometry": { "type": "Polygon", "coordinates": [ [ [ 320529.05671170540154, 4162916.93589975964278 ], [ 320512.054763719905168, 4162939.84910369804129 ], [ 320488.995857316534966, 4162922.739042253699154 ], [ 320505.997805302031338, 4162899.825838315766305 ], [ 320529.05671170540154, 4162916.93589975964278 ] ] ] } },
{ "type": "Feature", "properties": { "id": 89 }, "geometry": { "type": "Polygon", "coordinates": [ [ [ 325708.2188017568551, 4162903.19283722480759 ], [ 325706.330563047260512, 4162931.943877716548741 ], [ 325658.764126849535387, 4162928.819928649812937 ], [ 325660.652365559129976, 4162900.068888158071786 ], [ 325708.2188017568551, 4162903.19283722480759 ] ] ] } },
{ "type": "Feature", "properties": { "id": 90 }, "geometry": { "type": "Polygon", "coordinates": [ [ [ 324680.840067234996241, 4160324.233220593538135 ], [ 324676.015072096255608, 4160379.340112044941634 ], [ 324644.922923894249834, 4160376.617776236031204 ], [ 324649.747919032990467, 4160321.510884784627706 ], [ 324680.840067234996241, 4160324.233220593538135 ] ] ] } },
{ "type": "Feature", "properties": { "id": 91 }, "geometry": { "type": "Polygon", "coordinates": [ [ [ 322972.991490693704691, 4157063.299878312740475 ], [ 322971.797322640835773, 4157076.059282117523253 ], [ 322938.50976079661632, 4157072.94385889545083 ], [ 322939.703928849485237, 4157060.184455090668052 ], [ 322972.991490693704691, 4157063.299878312740475 ] ] ] } },
{ "type": "Feature", "properties": { "id": 92 }, "geometry": { "type": "Polygon", "coordinates": [ [ [ 320735.801416570786387, 4160897.228129526600242 ], [ 320708.940094893332571, 4160925.734899829141796 ], [ 320674.513544754590839, 4160893.295495865866542 ], [ 320701.374866432044655, 4160864.788725563324988 ], [ 320735.801416570786387, 4160897.228129526600242 ] ] ] } },
{ "type": "Feature", "properties": { "id": 93 }, "geometry": { "type": "Polygon", "coordinates": [ [ [ 322275.920307947322726, 4158724.908079827204347 ], [ 322261.382712390273809, 4158740.310738736297935 ], [ 322222.526646337006241, 4158703.636955555528402 ], [ 322237.064241894055158, 4158688.234296646434814 ], [ 322275.920307947322726, 4158724.908079827204347 ] ] ] } },
{ "type": "Feature", "properties": { "id": 94 }, "geometry": { "type": "Polygon", "coordinates": [ [ [ 320089.476025447715074, 4162796.751864496618509 ], [ 320067.506318593863398, 4162846.689978369046003 ], [ 320056.377670830115676, 4162841.794055994600058 ], [ 320078.347377683967352, 4162791.855942122172564 ], [ 320089.476025447715074, 4162796.751864496618509 ] ] ] } },
{ "type": "Feature", "properties": { "id": 95 }, "geometry": { "type": "Polygon", "coordinates": [ [ [ 325986.741737017640844, 4157423.506245740689337 ], [ 325963.391955282306299, 4157477.106234009377658 ], [ 325928.835816413862631, 4157462.052531084045768 ], [ 325952.185598149197176, 4157408.452542815357447 ], [ 325986.741737017640844, 4157423.506245740689337 ] ] ] } },
{ "type": "Feature", "properties": { "id": 96 }, "geometry": { "type": "Polygon", "coordinates": [ [ [ 323800.227032219292596, 4161163.192540247924626 ], [ 323781.897466412046924, 4161200.289143288042396 ], [ 323752.556625403696671, 4161185.791727567091584 ], [ 323770.886191210942343, 4161148.695124526973814 ], [ 323800.227032219292596, 4161163.192540247924626 ] ] ] } },
{ "type": "Feature", "properties": { "id": 97 }, "geometry": { "type": "Polygon", "coordinates": [ [ [ 325434.661227121483535, 4157258.405470862518996 ], [ 325397.640154955442995, 4157302.428835935425013 ], [ 325379.23489877069369, 4157286.951093234121799 ], [ 325416.255970936734229, 4157242.927728160750121 ], [ 325434.661227121483535, 4157258.405470862518996 ] ] ] } },
{ "type": "Feature", "properties": { "id": 98 }, "geometry": { "type": "Polygon", "coordinates": [ [ [ 322748.548427613917738, 4160715.979913755320013 ], [ 322741.636173104401678, 4160734.113193220458925 ], [ 322719.332605814794078, 4160725.611259862780571 ], [ 322726.244860324310139, 4160707.477980397641659 ], [ 322748.548427613917738, 4160715.979913755320013 ] ] ] } },
{ "type": "Feature", "properties": { "id": 99 }, "geometry": { "type": "Polygon", "coordinates": [ [ [ 322145.610464804340154, 4160485.80873352708295 ], [ 322104.541440509259701, 4160527.777092490810901 ], [ 322094.616271507460624, 4160518.064608683343977 ], [ 322135.685295803006738, 4160476.096249719616026 ], [ 322145.610464804340154, 4160485.80873352708295 ] ] ] } },
{ "type": "Feature", "properties": { "id": 100 }, "geometry": { "type": "Polygon", "coordinates": [ [ [ 324212.892974612303078, 4160201.335852834396064 ], [ 324186.927844830323011, 4160244.870469983667135 ], [ 324165.047593624796718, 4160231.820543294772506 ], [ 324191.012723406776786, 4160188.285926145501435 ], [ 324212.892974612303078, 4160201.335852834396064 ] ] ] } },
{ "type": "Feature", "properties": { "id": 101 }, "geometry": { "type": "Polygon", "coordinates": [ [ [ 321012.7350147604011, 4162455.156725682318211 ], [ 320981.712598222773522, 4162503.558267741464078 ], [ 320938.668257378507406, 4162475.969488243106753 ], [ 320969.690673916134983, 4162427.567946183960885 ], [ 321012.7350147604011, 4162455.156725682318211 ] ] ] } },
{ "type": "Feature", "properties": { "id": 102 }, "geometry": { "type": "Polygon", "coordinates": [ [ [ 323709.737854286679067, 4159483.828926735557616 ], [ 323707.845207355450839, 4159537.098509321454912 ], [ 323651.244496942847036, 4159535.087508752942085 ], [ 323653.137143873958848, 4159481.817926167044789 ], [ 323709.737854286679067, 4159483.828926735557616 ] ] ] } },
{ "type": "Feature", "properties": { "id": 103 }, "geometry": { "type": "Polygon", "coordinates": [ [ [ 320186.787974006030709, 4159232.282843044027686 ], [ 320179.791204570734408, 4159291.232878969050944 ], [ 320129.615719961118884, 4159285.277559492271394 ], [ 320136.612489396415185, 4159226.327523567248136 ], [ 320186.787974006030709, 4159232.282843044027686 ] ] ] } },
{ "type": "Feature", "properties": { "id": 104 }, "geometry": { "type": "Polygon", "coordinates": [ [ [ 323603.859161387663335, 4159282.634178931359202 ], [ 323571.977130347397178, 4159323.847838337998837 ], [ 323525.709422837942839, 4159288.05610064137727 ], [ 323557.591453878208995, 4159246.842441234737635 ], [ 323603.859161387663335, 4159282.634178931359202 ] ] ] } },
{ "type": "Feature", "properties": { "id": 105 }, "geometry": { "type": "Polygon", "coordinates": [ [ [ 322825.393928736913949, 4159491.363895074930042 ], [ 322817.342034230008721, 4159501.338261373806745 ], [ 322798.923988802824169, 4159486.470132977236062 ], [ 322806.975883309729397, 4159476.49576667835936 ], [ 322825.393928736913949, 4159491.363895074930042 ] ] ] } },
{ "type": "Feature", "properties": { "id": 106 }, "geometry": { "type": "Polygon", "coordinates": [ [ [ 324912.75500482483767, 4162999.75076091196388 ], [ 324891.304240538971499, 4163030.840266635175794 ], [ 324842.057104736799374, 4162996.861318522132933 ], [ 324863.507869022665545, 4162965.771812798455358 ], [ 324912.75500482483767, 4162999.75076091196388 ] ] ] } },
{ "type": "Feature", "properties": { "id": 107 }, "geometry": { "type": "Polygon", "coordinates": [ [ [ 325681.36756617721403, 4162082.836895960848778 ], [ 325678.073611475294456, 4162115.196887345053256 ], [ 325655.821192411938682, 4162112.931792167946696 ], [ 325659.115147113858256, 4162080.571800783742219 ], [ 325681.36756617721403, 4162082.836895960848778 ] ] ] } },
{ "type": "Feature", "properties": { "id": 108 }, "geometry": { "type": "Polygon", "coordinates": [ [ [ 325743.953063868451864, 4160622.773799939081073 ], [ 325723.614974729716778, 4160661.322695360053331 ], [ 325704.659263236215338, 4160651.321813471149653 ], [ 325724.997352374950424, 4160612.772918050177395 ], [ 325743.953063868451864, 4160622.773799939081073 ] ] ] } },
{ "type": "Feature", "properties": { "id": 109 }, "geometry": { "type": "Polygon", "coordinates": [ [ [ 322177.143950211815536, 4157678.971562807448208 ], [ 322156.613062272313982, 4157708.561943006701767 ], [ 322120.808666182681918, 4157683.719543588347733 ], [ 322141.339554122649133, 4157654.129163389094174 ], [ 322177.143950211815536, 4157678.971562807448208 ] ] ] } },
{ "type": "Feature", "properties": { "id": 110 }, "geometry": { "type": "Polygon", "coordinates": [ [ [ 323147.583739625290036, 4162110.343340588267893 ], [ 323123.408866367302835, 4162139.722618902102113 ], [ 323094.378273718524724, 4162115.834663234651089 ], [ 323118.553146976511925, 4162086.455384920816869 ], [ 323147.583739625290036, 4162110.343340588267893 ] ] ] } },
{ "type": "Feature", "properties": { "id": 111 }, "geometry": { "type": "Polygon", "coordinates": [ [ [ 322437.129863302921876, 4157785.668735578656197 ], [ 322414.772742894245312, 4157827.869175268337131 ], [ 322404.664531245594844, 4157822.514005829114467 ], [ 322427.021651654271409, 4157780.313566139433533 ], [ 322437.129863302921876, 4157785.668735578656197 ] ] ] } },
{ "type": "Feature", "properties": { "id": 112 }, "geometry": { "type": "Polygon", "coordinates": [ [ [ 324234.029401145875454, 4158274.909755822271109 ], [ 324231.112832013750449, 4158285.23289286531508 ], [ 324214.927816044539213, 4158280.660182285122573 ], [ 324217.844385176664218, 4158270.337045242078602 ], [ 324234.029401145875454, 4158274.909755822271109 ] ] ] } },
{ "type": "Feature", "properties": { "id": 113 }, "geometry": { "type": "Polygon", "coordinates": [ [ [ 323562.306985453702509, 4159331.191338084172457 ], [ 323547.394136166200042, 4159384.346986727789044 ], [ 323516.705256802146323, 4159375.737203112337738 ], [ 323531.618106089648791, 4159322.581554468721151 ], [ 323562.306985453702509, 4159331.191338084172457 ] ] ] } },
{ "type": "Feature", "properties": { "id": 114 }, "geometry": { "type": "Polygon", "coordinates": [ [ [ 323108.438453682232648, 4161695.248614221811295 ], [ 323082.678761118557304, 4161727.279920715838671 ], [ 323059.43541623512283, 4161708.587538672145456 ], [ 323085.195108798798174, 4161676.55623217811808 ], [ 323108.438453682232648, 4161695.248614221811295 ] ] ] } },
{ "type": "Feature", "properties": { "id": 115 }, "geometry": { "type": "Polygon", "coordinates": [ [ [ 325728.196542458899785, 4157871.166069900617003 ], [ 325721.225654518755618, 4157905.062517047859728 ], [ 325666.050941432709806, 4157893.71570124803111 ], [ 325673.021829372853972, 4157859.819254100788385 ], [ 325728.196542458899785, 4157871.166069900617003 ] ] ] } },
{ "type": "Feature", "properties": { "id": 116 }, "geometry": { "type": "Polygon", "coordinates": [ [ [ 322776.339292710879818, 4162876.841913874261081 ], [ 322763.723137477645651, 4162900.075043035205454 ], [ 322733.289782148553059, 4162883.548989551607519 ], [ 322745.905937381787226, 4162860.315860390663147 ], [ 322776.339292710879818, 4162876.841913874261081 ] ] ] } },
{ "type": "Feature", "properties": { "id": 117 }, "geometry": { "type": "Polygon", "coordinates": [ [ [ 321450.013372239249293, 4157448.015710985753685 ], [ 321448.061150467314292, 4157464.301410580519587 ], [ 321431.734053099120501, 4157462.344226317945868 ], [ 321433.686274871055502, 4157446.058526723179966 ], [ 321450.013372239249293, 4157448.015710985753685 ] ] ] } },
{ "type": "Feature", "properties": { "id": 118 }, "geometry": { "type": "Polygon", "coordinates": [ [ [ 320849.071620078757405, 4160841.034888986963779 ], [ 320831.404879105743021, 4160861.825950134545565 ], [ 320816.854451715014875, 4160849.462048651184887 ], [ 320834.521192687563598, 4160828.670987503603101 ], [ 320849.071620078757405, 4160841.034888986963779 ] ] ] } },
{ "type": "Feature", "properties": { "id": 119 }, "geometry": { "type": "Polygon", "coordinates": [ [ [ 322853.387783405778464, 4160995.842975414358079 ], [ 322852.758304192917421, 4161015.447322933468968 ], [ 322834.151899748714641, 4161014.849886838812381 ], [ 322834.781378961575683, 4160995.245539319701493 ], [ 322853.387783405778464, 4160995.842975414358079 ] ] ] } },
{ "type": "Feature", "properties": { "id": 120 }, "geometry": { "type": "Polygon", "coordinates": [ [ [ 321023.676187915029004, 4158665.248524370137602 ], [ 321022.310545578366145, 4158679.618907228112221 ], [ 321003.544568950892426, 4158677.835544013418257 ], [ 321004.910211287555285, 4158663.465161155443639 ], [ 321023.676187915029004, 4158665.248524370137602 ] ] ] } },
{ "type": "Feature", "properties": { "id": 121 }, "geometry": { "type": "Polygon", "coordinates": [ [ [ 322785.830837349174544, 4158230.219184631481767 ], [ 322767.6808590691071, 4158260.345052764751017 ], [ 322743.514379044063389, 4158245.785436237696558 ], [ 322761.664357324130833, 4158215.659568104427308 ], [ 322785.830837349174544, 4158230.219184631481767 ] ] ] } },
{ "type": "Feature", "properties": { "id": 122 }, "geometry": { "type": "Polygon", "coordinates": [ [ [ 320256.349448064807802, 4161804.124833503738046 ], [ 320247.424308907240629, 4161815.024937688373029 ], [ 320215.396230028476566, 4161788.799953405279666 ], [ 320224.321369186043739, 4161777.899849220644683 ], [ 320256.349448064807802, 4161804.124833503738046 ] ] ] } },
{ "type": "Feature", "properties": { "id": 123 }, "geometry": { "type": "Polygon", "coordinates": [ [ [ 325549.102964649442583, 4157352.142952302005142 ], [ 325521.209393278229982, 4157394.012406738940626 ], [ 325501.365841732360423, 4157380.792565956246108 ], [ 325529.259413103573024, 4157338.923111519310623 ], [ 325549.102964649442583, 4157352.142952302005142 ] ] ] } },
{ "type": "Feature", "properties": { "id": 124 }, "geometry": { "type": "Polygon", "coordinates": [ [ [ 321127.726322555681691, 4158247.617270821705461 ], [ 321111.752362687839195, 4158277.887089110445231 ], [ 321086.525909720920026, 4158264.57460921863094 ], [ 321102.499869588762522, 4158234.304790929891169 ], [ 321127.726322555681691, 4158247.617270821705461 ] ] ] } },
{ "type": "Feature", "properties": { "id": 125 }, "geometry": { "type": "Polygon", "coordinates": [ [ [ 322237.870059486769605, 4159774.072648277971894 ], [ 322235.539118587330449, 4159785.674978252965957 ], [ 322189.093615350488108, 4159776.343945320695639 ], [ 322191.424556249927264, 4159764.741615345701575 ], [ 322237.870059486769605, 4159774.072648277971894 ] ] ] } },
{ "type": "Feature", "properties": { "id": 126 }, "geometry": { "type": "Polygon", "coordinates": [ [ [ 324299.365240920742508, 4162354.498816434293985 ], [ 324296.28767956624506, 4162390.974890844430774 ], [ 324260.829789693816565, 4162387.983235811814666 ], [ 324263.907351048314013, 4162351.507161401677877 ], [ 324299.365240920742508, 4162354.498816434293985 ] ] ] } },
{ "type": "Feature", "properties": { "id": 127 }, "geometry": { "type": "Polygon", "coordinates": [ [ [ 322698.479356745025143, 4160187.713826603721827 ], [ 322691.628383550327271, 4160210.153460976202041 ], [ 322670.469045136356726, 4160203.693370856810361 ], [ 322677.320018331054598, 4160181.253736484330148 ], [ 322698.479356745025143, 4160187.713826603721827 ] ] ] } },
{ "type": "Feature", "properties": { "id": 128 }, "geometry": { "type": "Polygon", "coordinates": [ [ [ 320131.90651136013912, 4158920.311958147678524 ], [ 320129.429322616138961, 4158946.570236410014331 ], [ 320108.947861972497776, 4158944.638028849847615 ], [ 320111.425050716497935, 4158918.379750587511808 ], [ 320131.90651136013912, 4158920.311958147678524 ] ] ] } },
{ "type": "Feature", "properties": { "id": 129 }, "geometry": { "type": "Polygon", "coordinates": [ [ [ 325372.914101388072595, 4160547.081881825812161 ], [ 325354.043049338506535, 4160592.798757733777165 ], [ 325313.413267490919679, 4160576.027560822665691 ], [ 325332.28431954071857, 4160530.310684914700687 ], [ 325372.914101388072595, 4160547.081881825812161 ] ] ] } },
{ "type": "Feature", "properties": { "id": 130 }, "geometry": { "type": "Polygon", "coordinates": [ [ [ 320547.933629971463233, 4160206.890578675549477 ], [ 320532.212513304082677, 4160251.471807787660509 ], [ 320495.109827077481896, 4160238.387923147063702 ], [ 320510.830943744862452, 4160193.80669403495267 ], [ 320547.933629971463233, 4160206.890578675549477 ] ] ] } },
{ "type": "Feature", "properties": { "id": 131 }, "geometry": { "type": "Polygon", "coordinates": [ [ [ 320787.333936124574393, 4158689.69845164893195 ], [ 320769.001913807587698, 4158727.81507408246398 ], [ 320743.629697422729805, 4158715.612417936790735 ], [ 320761.9617197397165, 4158677.495795503258705 ], [ 320787.333936124574393, 4158689.69845164893195 ] ] ] } },
{ "type": "Feature", "properties": { "id": 132 }, "geometry": { "type": "Polygon", "coordinates": [ [ [ 322157.533260035444982, 4162909.804351587314159 ], [ 322155.787530337111093, 4162931.595877379179001 ], [ 322115.627450738684274, 4162928.378633928019553 ], [ 322117.373180437018164, 4162906.587108136154711 ], [ 322157.533260035444982, 4162909.804351587314159 ] ] ] } },
{ "type": "Feature", "properties": { "id": 133 }, "geometry": { "type": "Polygon", "coordinates": [ [ [ 320928.092667887103744, 4158468.325655231252313 ], [ 320923.800868470338173, 4158487.171493445057422 ], [ 320906.217002324992791, 4158483.167085383553058 ], [ 320910.508801741758361, 4158464.321247169747949 ], [ 320928.092667887103744, 4158468.325655231252313 ] ] ] } },
{ "type": "Feature", "properties": { "id": 134 }, "geometry": { "type": "Polygon", "coordinates": [ [ [ 321052.624258966301568, 4162365.631803328637034 ], [ 321041.148991159279831, 4162399.991810790728778 ], [ 321027.858884570654482, 4162395.553292188793421 ], [ 321039.334152377676219, 4162361.193284726701677 ], [ 321052.624258966301568, 4162365.631803328637034 ] ] ] } },
{ "type": "Feature", "properties": { "id": 135 }, "geometry": { "type": "Polygon", "coordinates": [ [ [ 325924.274379239883274, 4157658.890921382699162 ], [ 325887.517199478112161, 4157704.366876257117838 ], [ 325864.269023662433028, 4157685.575904633849859 ], [ 325901.026203424204141, 4157640.099949759431183 ], [ 325924.274379239883274, 4157658.890921382699162 ] ] ] } },
{ "type": "Feature", "properties": { "id": 136 }, "geometry": { "type": "Polygon", "coordinates": [ [ [ 324923.822920750360936, 4158537.416543525643647 ], [ 324894.861590677406639, 4158569.783099863678217 ], [ 324881.041930641047657, 4158557.417381014209241 ], [ 324910.003260713536292, 4158525.05082467617467 ], [ 324923.822920750360936, 4158537.416543525643647 ] ] ] } },
{ "type": "Feature", "properties": { "id": 137 }, "geometry": { "type": "Polygon", "coordinates": [ [ [ 323355.995351911347825, 4160407.456308624707162 ], [ 323348.89982681494439, 4160455.408836111426353 ], [ 323325.159364255785476, 4160451.89596501365304 ], [ 323332.254889352188911, 4160403.943437526933849 ], [ 323355.995351911347825, 4160407.456308624707162 ] ] ] } },
{ "type": "Feature", "properties": { "id": 138 }, "geometry": { "type": "Polygon", "coordinates": [ [ [ 321960.68997461325489, 4159543.196712572127581 ], [ 321958.697573554120027, 4159565.22728828759864 ], [ 321923.460862237669062, 4159562.040550825186074 ], [ 321925.453263296803925, 4159540.009975109715015 ], [ 321960.68997461325489, 4159543.196712572127581 ] ] ] } },
{ "type": "Feature", "properties": { "id": 139 }, "geometry": { "type": "Polygon", "coordinates": [ [ [ 323685.14184730197303, 4158730.755371913779527 ], [ 323678.604617822449654, 4158747.223430866841227 ], [ 323642.298661997774616, 4158732.811266969423741 ], [ 323648.835891477530822, 4158716.343208016362041 ], [ 323685.14184730197303, 4158730.755371913779527 ] ] ] } },
{ "type": "Feature", "properties": { "id": 140 }, "geometry": { "type": "Polygon", "coordinates": [ [ [ 323209.351049658143893, 4157303.258664019405842 ], [ 323208.519125678925775, 4157319.958689254708588 ], [ 323181.722140960860997, 4157318.623777849599719 ], [ 323182.554064940079115, 4157301.923752614296973 ], [ 323209.351049658143893, 4157303.258664019405842 ] ] ] } },
{ "type": "Feature", "properties": { "id": 141 }, "geometry": { "type": "Polygon", "coordinates": [ [ [ 325967.274561138125136, 4158937.224033982958645 ], [ 325955.679930100450292, 4158956.776779148727655 ], [ 325912.248227541102096, 4158931.022105713374913 ], [ 325923.842858578776941, 4158911.469360547605902 ], [ 325967.274561138125136, 4158937.224033982958645 ] ] ] } },
{ "type": "Feature", "properties": { "id": 142 }, "geometry": { "type": "Polygon", "coordinates": [ [ [ 324581.669126369291916, 4160563.649980268906802 ], [ 324573.39138216455467, 4160593.10082425409928 ], [ 324541.065192307112738, 4160584.0149070257321 ], [ 324549.342936511849985, 4160554.564063040539622 ], [ 324581.669126369291916, 4160563.649980268906802 ] ] ] } },
{ "type": "Feature", "properties": { "id": 143 }, "geometry": { "type": "Polygon", "coordinates": [ [ [ 325606.034832210745662, 4161992.724086015485227 ], [ 325597.229939188808203, 4162006.340090633835644 ], [ 325548.314898763783276, 4161974.708807437215 ], [ 325557.119791785720736, 4161961.092802818864584 ], [ 325606.034832210745662, 4161992.724086015485227 ] ] ] } },
{ "type": "Feature", "properties": { "id": 144 }, "geometry": { "type": "Polygon", "coordinates": [ [ [ 325646.297515208367258, 4158069.129912555217743 ], [ 325625.779349950142205, 4158111.476991389412433 ], [ 325613.787966643925756, 4158105.666881433222443 ], [ 325634.30613190215081, 4158063.319802599027753 ], [ 325646.297515208367258, 4158069.129912555217743 ] ] ] } },
{ "type": "Feature", "properties": { "id": 145 }, "geometry": { "type": "Polygon", "coordinates": [ [ [ 325076.936116947268602, 4157831.865775008685887 ], [ 325074.362058492202777, 4157851.781484476290643 ], [ 325025.009204151749145, 4157845.402744506951421 ], [ 325027.583262606814969, 4157825.487035039346665 ], [ 325076.936116947268602, 4157831.865775008685887 ] ] ] } },
{ "type": "Feature", "properties": { "id": 146 }, "geometry": { "type": "Polygon", "coordinates": [ [ [ 321011.398681167862378, 4161876.100294004194438 ], [ 321001.344133786042221, 4161910.82730219932273 ], [ 320959.790894003934227, 4161898.796348772477359 ], [ 320969.845441385754384, 4161864.069340577349067 ], [ 321011.398681167862378, 4161876.100294004194438 ] ] ] } },
{ "type": "Feature", "properties": { "id": 147 }, "geometry": { "type": "Polygon", "coordinates": [ [ [ 325292.174197088927031, 4159346.802110025193542 ], [ 325282.850953037617728, 4159377.368606369942427 ], [ 325234.232292668428272, 4159362.53917904663831 ], [ 325243.555536719737574, 4159331.972682701889426 ], [ 325292.174197088927031, 4159346.802110025193542 ] ] ] } },
{ "type": "Feature", "properties": { "id": 148 }, "geometry": { "type": "Polygon", "coordinates": [ [ [ 322802.562354842782952, 4158795.287300987169147 ], [ 322796.189733369275928, 4158829.84058682480827 ], [ 322749.595073192380369, 4158821.247188981622458 ], [ 322755.967694665887393, 4158786.693903143983334 ], [ 322802.562354842782952, 4158795.287300987169147 ] ] ] } },
{ "type": "Feature", "properties": { "id": 149 }, "geometry": { "type": "Polygon", "coordinates": [ [ [ 325426.871639045653865, 4159287.696893475018442 ], [ 325400.821476900018752, 4159336.503556780982763 ], [ 325368.023240249603987, 4159318.997763003222644 ], [ 325394.0734023952391, 4159270.191099697258323 ], [ 325426.871639045653865, 4159287.696893475018442 ] ] ] } },
{ "type": "Feature", "properties": { "id": 150 }, "geometry": { "type": "Polygon", "coordinates": [ [ [ 320723.417114357813261, 4162627.958962620701641 ], [ 320720.497438158956356, 4162654.544400972314179 ], [ 320679.359374142601155, 4162650.026520740706474 ], [ 320682.27905034145806, 4162623.441082389093935 ], [ 320723.417114357813261, 4162627.958962620701641 ] ] ] } },
{ "type": "Feature", "properties": { "id": 151 }, "geometry": { "type": "Polygon", "coordinates": [ [ [ 324794.957191662862897, 4160708.813680538441986 ], [ 324763.20606024004519, 4160753.348701717797667 ], [ 324733.345079580787569, 4160732.059390604961663 ], [ 324765.096211003605276, 4160687.524369425140321 ], [ 324794.957191662862897, 4160708.813680538441986 ] ] ] } },
{ "type": "Feature", "properties": { "id": 152 }, "geometry": { "type": "Polygon", "coordinates": [ [ [ 320921.879048482165672, 4158847.037187637295574 ], [ 320920.636188934091479, 4158894.218135150615126 ], [ 320898.219508310954552, 4158893.627625908702612 ], [ 320899.462367859028745, 4158846.44667839538306 ], [ 320921.879048482165672, 4158847.037187637295574 ] ] ] } },
{ "type": "Feature", "properties": { "id": 153 }, "geometry": { "type": "Polygon", "coordinates": [ [ [ 323448.996581134852022, 4161580.106839544139802 ], [ 323432.701343328692019, 4161601.765481711830944 ], [ 323389.679637321271002, 4161569.397389344871044 ], [ 323405.974875127431005, 4161547.738747177179903 ], [ 323448.996581134852022, 4161580.106839544139802 ] ] ] } },
{ "type": "Feature", "properties": { "id": 154 }, "geometry": { "type": "Polygon", "coordinates": [ [ [ 320679.1754619195126, 4162071.412988766562194 ], [ 320661.672991127707064, 4162095.611000768840313 ], [ 320648.405381542164832, 4162086.014512048102915 ], [ 320665.907852333970368, 4162061.816500045824796 ], [ 320679.1754619195126, 4162071.412988766562194 ] ] ] } },
{ "type": "Feature", "properties": { "id": 155 }, "geometry": { "type": "Polygon", "coordinates": [ [ [ 320930.797883842373267, 4158366.488183933310211 ], [ 320908.600008851848543, 4158406.779900419060141 ], [ 320868.21124434331432, 4158384.528558858670294 ], [ 320890.409119333606213, 4158344.236842372920364 ], [ 320930.797883842373267, 4158366.488183933310211 ] ] ] } },
{ "type": "Feature", "properties": { "id": 156 }, "geometry": { "type": "Polygon", "coordinates": [ [ [ 324176.810132587794214, 4160244.448291107080877 ], [ 324172.93177714489866, 4160271.456042815931141 ], [ 324150.571201017184649, 4160268.245029064361006 ], [ 324154.449556460080203, 4160241.237277355510741 ], [ 324176.810132587794214, 4160244.448291107080877 ] ] ] } },
{ "type": "Feature", "properties": { "id": 157 }, "geometry": { "type": "Polygon", "coordinates": [ [ [ 325472.963861255440861, 4160498.346583412028849 ], [ 325450.547272063791752, 4160522.700756342615932 ], [ 325428.44287474732846, 4160502.354953782167286 ], [ 325450.859463938977569, 4160478.000780851580203 ], [ 325472.963861255440861, 4160498.346583412028849 ] ] ] } },
{ "type": "Feature", "properties": { "id": 158 }, "geometry": { "type": "Polygon", "coordinates": [ [ [ 320938.042387975612655, 4160497.345688631758094 ], [ 320937.465313146589324, 4160537.914296262897551 ], [ 320902.174449417390861, 4160537.41229556966573 ], [ 320902.751524246414192, 4160496.843687938526273 ], [ 320938.042387975612655, 4160497.345688631758094 ] ] ] } },
{ "type": "Feature", "properties": { "id": 159 }, "geometry": { "type": "Polygon", "coordinates": [ [ [ 325261.924090684391558, 4162588.602067421656102 ], [ 325232.209841606672853, 4162622.17318821977824 ], [ 325203.562816645484418, 4162596.817322380840778 ], [ 325233.277065723203123, 4162563.246201582718641 ], [ 325261.924090684391558, 4162588.602067421656102 ] ] ] } },
{ "type": "Feature", "properties": { "id": 160 }, "geometry": { "type": "Polygon", "coordinates": [ [ [ 324268.366784694604576, 4157902.520885719917715 ], [ 324255.177597963484004, 4157940.639362454414368 ], [ 324218.496827065944672, 4157927.947629251517355 ], [ 324231.686013797065243, 4157889.829152517020702 ], [ 324268.366784694604576, 4157902.520885719917715 ] ] ] } },
{ "type": "Feature", "properties": { "id": 161 }, "geometry": { "type": "Polygon", "coordinates": [ [ [ 324448.138597218086943, 4162592.494729859288782 ], [ 324445.248227566014975, 4162624.908083306625485 ], [ 324389.192230278626084, 4162619.90944736963138 ], [ 324392.082599930698052, 4162587.496093922294676 ], [ 324448.138597218086943, 4162592.494729859288782 ] ] ] } },
{ "type": "Feature", "properties": { "id": 162 }, "geometry": { "type": "Polygon", "coordinates": [ [ [ 325933.031371609773487, 4162016.78078094497323 ], [ 325897.652576483320445, 4162060.244066255167127 ], [ 325885.063015937805176, 4162049.996256406418979 ], [ 325920.441811064723879, 4162006.532971096225083 ], [ 325933.031371609773487, 4162016.78078094497323 ] ] ] } },
{ "type": "Feature", "properties": { "id": 163 }, "geometry": { "type": "Polygon", "coordinates": [ [ [ 323129.144891269505024, 4160545.400016759522259 ], [ 323125.830024591414258, 4160557.699219597969204 ], [ 323096.911794243380427, 4160549.905212178826332 ], [ 323100.226660921471193, 4160537.606009340379387 ], [ 323129.144891269505024, 4160545.400016759522259 ] ] ] } },
{ "type": "Feature", "properties": { "id": 164 }, "geometry": { "type": "Polygon", "coordinates": [ [ [ 324835.413698952645063, 4157019.613944358658046 ], [ 324823.161731597734615, 4157046.897708045784384 ], [ 324798.827684223651886, 4157035.970331696327776 ], [ 324811.079651578562334, 4157008.686568009201437 ], [ 324835.413698952645063, 4157019.613944358658046 ] ] ] } },
{ "type": "Feature", "properties": { "id": 165 }, "geometry": { "type": "Polygon", "coordinates": [ [ [ 325540.104524520225823, 4159060.85632763709873 ], [ 325523.803682701196522, 4159104.805776228196919 ], [ 325498.162872433196753, 4159095.295604754239321 ], [ 325514.463714252458885, 4159051.346156163141131 ], [ 325540.104524520225823, 4159060.85632763709873 ] ] ] } },
{ "type": "Feature", "properties": { "id": 166 }, "geometry": { "type": "Polygon", "coordinates": [ [ [ 321359.095661374740303, 4159709.189995111897588 ], [ 321351.916103085037321, 4159726.586024882737547 ], [ 321336.16221390501596, 4159720.08419848093763 ], [ 321343.341772194718942, 4159702.688168710097671 ], [ 321359.095661374740303, 4159709.189995111897588 ] ] ] } },
{ "type": "Feature", "properties": { "id": 167 }, "geometry": { "type": "Polygon", "coordinates": [ [ [ 322535.211571587249637, 4162478.616136750672013 ], [ 322516.617148620774969, 4162512.931481219362468 ], [ 322491.89382246742025, 4162499.534676065668464 ], [ 322510.488245433894917, 4162465.219331596978009 ], [ 322535.211571587249637, 4162478.616136750672013 ] ] ] } },
{ "type": "Feature", "properties": { "id": 168 }, "geometry": { "type": "Polygon", "coordinates": [ [ [ 320091.334743389568757, 4160953.496083064936101 ], [ 320084.571838430128992, 4161011.154333314392716 ], [ 320065.79873567057075, 4161008.952381135430187 ], [ 320072.561640630010515, 4160951.294130885973573 ], [ 320091.334743389568757, 4160953.496083064936101 ] ] ] } },
{ "type": "Feature", "properties": { "id": 169 }, "geometry": { "type": "Polygon", "coordinates": [ [ [ 322522.367373886052519, 4157509.915231362450868 ], [ 322506.541373547865078, 4157541.255816785153002 ], [ 322453.122110838536173, 4157514.280785582028329 ], [ 322468.948111176490784, 4157482.940200159326196 ], [ 322522.367373886052519, 4157509.915231362450868 ] ] ] } },
{ "type": "Feature", "properties": { "id": 170 }, "geometry": { "type": "Polygon", "coordinates": [ [ [ 320416.977535881102085, 4161474.310920451767743 ], [ 320408.170034417766146, 4161528.502580090425909 ], [ 320387.940192780166399, 4161525.214724338613451 ], [ 320396.747694243502337, 4161471.023064699955285 ], [ 320416.977535881102085, 4161474.310920451767743 ] ] ] } },
{ "type": "Feature", "properties": { "id": 171 }, "geometry": { "type": "Polygon", "coordinates": [ [ [ 321161.891977836261503, 4157201.069142497144639 ], [ 321159.919278940418735, 4157239.260284885298461 ], [ 321126.360670127905905, 4157237.526871679816395 ], [ 321128.333369023690466, 4157199.335729291662574 ], [ 321161.891977836261503, 4157201.069142497144639 ] ] ] } },
{ "type": "Feature", "properties": { "id": 172 }, "geometry": { "type": "Polygon", "coordinates": [ [ [ 324675.345039397943765, 4159710.107481931336224 ], [ 324665.42645134893246, 4159740.571622420568019 ], [ 324630.986360941780731, 4159729.358535045292228 ], [ 324640.904948990792036, 4159698.894394556060433 ], [ 324675.345039397943765, 4159710.107481931336224 ] ] ] } },
{ "type": "Feature", "properties": { "id": 173 }, "geometry": { "type": "Polygon", "coordinates": [ [ [ 323382.832158405333757, 4157918.354172510560602 ], [ 323346.914221009705216, 4157957.448590727057308 ], [ 323332.85181729355827, 4157944.528778658248484 ], [ 323368.769754689186811, 4157905.434360441751778 ], [ 323382.832158405333757, 4157918.354172510560602 ] ] ] } },
{ "type": "Feature", "properties": { "id": 174 }, "geometry": { "type": "Polygon", "coordinates": [ [ [ 322261.255101844202727, 4158609.673381511121988 ], [ 322260.6482828699518, 4158640.104040366597474 ], [ 322218.45669351273682, 4158639.262696211226285 ], [ 322219.063512487104163, 4158608.832037355750799 ], [ 322261.255101844202727, 4158609.673381511121988 ] ] ] } },
{ "type": "Feature", "properties": { "id": 175 }, "geometry": { "type": "Polygon", "coordinates": [ [ [ 320959.047962066542823, 4161293.966643397230655 ], [ 320957.078418009739835, 4161305.14932513050735 ], [ 320914.783206327876542, 4161297.700102771632373 ], [ 320916.75275038467953, 4161286.517421038355678 ], [ 320959.047962066542823, 4161293.966643397230655 ] ] ] } },
{ "type": "Feature", "properties": { "id": 176 }, "geometry": { "type": "Polygon", "coordinates": [ [ [ 321395.361089381854981, 4161028.433714280370623 ], [ 321386.424373166169971, 4161040.735753842163831 ], [ 321377.536469674669206, 4161034.279208904597908 ], [ 321386.473185890354216, 4161021.9771693428047 ], [ 321395.361089381854981, 4161028.433714280370623 ] ] ] } },
{ "type": "Feature", "properties": { "id": 177 }, "geometry": { "type": "Polygon", "coordinates": [ [ [ 321083.444418066064827, 4160911.2062125983648 ], [ 321080.602299531572498, 4160925.906050402671099 ], [ 321059.091526586038526, 4160921.74708162387833 ], [ 321061.933645120530855, 4160907.047243819572031 ], [ 321083.444418066064827, 4160911.2062125983648 ] ] ] } },
{ "type": "Feature", "properties": { "id": 178 }, "geometry": { "type": "Polygon", "coordinates": [ [ [ 324363.371338681317866, 4162134.160319636110216 ], [ 324348.412951356265694, 4162160.002476449590176 ], [ 324303.83184358663857, 4162134.197297639679164 ], [ 324318.790230911690742, 4162108.355140826199204 ], [ 324363.371338681317866, 4162134.160319636110216 ] ] ] } },
{ "type": "Feature", "properties": { "id": 179 }, "geometry": { "type": "Polygon", "coordinates": [ [ [ 321257.609734216239303, 4158755.412653894629329 ], [ 321256.895029997918755, 4158766.038741905707866 ], [ 321202.201810773578472, 4158762.360109237488359 ], [ 321202.916514991899021, 4158751.734021226409823 ], [ 321257.609734216239303, 4158755.412653894629329 ] ] ] } },
{ "type": "Feature", "properties": { "id": 180 }, "geometry": { "type": "Polygon", "coordinates": [ [ [ 321262.697568954434246, 4157143.778657013550401 ], [ 321249.974093698896468, 4157180.805652475450188 ], [ 321231.9374927978497, 4157174.607789473142475 ], [ 321244.660968053387478, 4157137.580794011242688 ], [ 321262.697568954434246, 4157143.778657013550401 ] ] ] } },
{ "type": "Feature", "properties": { "id": 181 }, "geometry": { "type": "Polygon", "coordinates": [ [ [ 325372.352432529674843, 4161897.662488128989935 ], [ 325365.603286037221551, 4161919.619804667774588 ], [ 325339.708100394112989, 4161911.660252732224762 ], [ 325346.457246886566281, 4161889.702936193440109 ], [ 325372.352432529674843, 4161897.662488128989935 ] ] ] } },
{ "type": "Feature", "properties": { "id": 182 }, "geometry": { "type": "Polygon", "coordinates": [ [ [ 323566.867532546631992, 4158603.212315248791128 ], [ 323554.066251014359295, 4158630.863420031964779 ], [ 323516.671777630690485, 4158613.551374625880271 ], [ 323529.473059162963182, 4158585.900269842706621 ], [ 323566.867532546631992, 4158603.212315248791128 ] ] ] } },
{ "type": "Feature", "properties": { "id": 183 }, "geometry": { "type": "Polygon", "coordinates": [ [ [ 322647.942482137354091, 4158746.003283907659352 ], [ 322642.651194470585324, 4158793.892140557058156 ], [ 322585.575867486360949, 4158787.585830595344305 ], [ 322590.867155153129715, 4158739.696973945945501 ], [ 322647.942482137354091, 4158746.003283907659352 ] ] ] } },
{ "type": "Feature", "properties": { "id": 184 }, "geometry": { "type": "Polygon", "coordinates": [ [ [ 325244.853369744261727, 4159909.941374528221786 ], [ 325228.466311730910093, 4159957.172091882675886 ], [ 325176.762341031106189, 4159939.233004465699196 ], [ 325193.149399044457823, 4159892.002287111245096 ], [ 325244.853369744261727, 4159909.941374528221786 ] ] ] } },
{ "type": "Feature", "properties": { "id": 185 }, "geometry": { "type": "Polygon", "coordinates": [ [ [ 320157.169304670707788, 4158595.382876598741859 ], [ 320148.786077443684917, 4158636.204884861130267 ], [ 320112.462395170587115, 4158628.745436020195484 ], [ 320120.845622397609986, 4158587.923427757807076 ], [ 320157.169304670707788, 4158595.382876598741859 ] ] ] } },
{ "type": "Feature", "properties": { "id": 186 }, "geometry": { "type": "Polygon", "coordinates": [ [ [ 320867.916571789828595, 4161995.584269857034087 ], [ 320863.038903583248612, 4162031.539435752667487 ], [ 320804.356317084166221, 4162023.578571734484285 ], [ 320809.233985290746205, 4161987.623405838850886 ], [ 320867.916571789828595, 4161995.584269857034087 ] ] ] } },
{ "type": "Feature", "properties": { "id": 187 }, "geometry": { "type": "Polygon", "coordinates": [ [ [ 321662.369420652743429, 4157115.387895348481834 ], [ 321655.418924497906119, 4157129.674426764715463 ], [ 321605.318497579544783, 4157105.300223221536726 ], [ 321612.268993734382093, 4157091.013691805303097 ], [ 321662.369420652743429, 4157115.387895348481834 ] ] ] } },
{ "type": "Feature", "properties": { "id": 188 }, "geometry": { "type": "Polygon", "coordinates": [ [ [ 321669.493072403944097, 4160303.097820262424648 ], [ 321661.182354859309271, 4160353.909752224106342 ], [ 321619.169575842504855, 4160347.038209927268326 ], [ 321627.480293387139682, 4160296.226277965586632 ], [ 321669.493072403944097, 4160303.097820262424648 ] ] ] } },
{ "type": "Feature", "properties": { "id": 189 }, "geometry": { "type": "Polygon", "coordinates": [ [ [ 320102.643152935197577, 4157809.803130009677261 ], [ 320078.363611579407007, 4157857.694711924064904 ], [ 320029.306790966074914, 4157832.824430816806853 ], [ 320053.586332321865484, 4157784.932848902419209 ], [ 320102.643152935197577, 4157809.803130009677261 ] ] ] } },
{ "type": "Feature", "properties": { "id": 190 }, "geometry": { "type": "Polygon", "coordinates": [ [ [ 323620.981405064580031, 4160966.884282489307225 ], [ 323602.983445899910294, 4161019.61812768317759 ], [ 323585.22092013945803, 4161013.55581206548959 ], [ 323603.218879304127768, 4160960.821966871619225 ], [ 323620.981405064580031, 4160966.884282489307225 ] ] ] } },
{ "type": "Feature", "properties": { "id": 191 }, "geometry": { "type": "Polygon", "coordinates": [ [ [ 322309.012419855687767, 4160109.2266931142658 ], [ 322298.981175692752004, 4160124.549320372752845 ], [ 322288.649919137824327, 4160117.785770279821008 ], [ 322298.68116330076009, 4160102.463143021333963 ], [ 322309.012419855687767, 4160109.2266931142658 ] ] ] } },
{ "type": "Feature", "properties": { "id": 192 }, "geometry": { "type": "Polygon", "coordinates": [ [ [ 320510.952628834289499, 4160607.060229884460568 ], [ 320504.328895808313973, 4160635.770845737308264 ], [ 320482.631386267137714, 4160630.765083712991327 ], [ 320489.255119293113239, 4160602.054467860143632 ], [ 320510.952628834289499, 4160607.060229884460568 ] ] ] } },
{ "type": "Feature", "properties": { "id": 193 }, "geometry": { "type": "Polygon", "coordinates": [ [ [ 322152.603751306887716, 4161300.978213256690651 ], [ 322138.607722910353914, 4161336.651051254011691 ], [ 322115.468846272444353, 4161327.572648955043405 ], [ 322129.464874668978155, 4161291.899810957722366 ], [ 322152.603751306887716, 4161300.978213256690651 ] ] ] } },
{ "type": "Feature", "properties": { "id": 194 }, "geometry": { "type": "Polygon", "coordinates": [ [ [ 324005.588336848421022, 4162611.178975062910467 ], [ 324005.080268730409443, 4162631.919772088062018 ], [ 323958.465647503384389, 4162630.777896833606064 ], [ 323958.973715621395968, 4162610.037099808454514 ], [ 324005.588336848421022, 4162611.178975062910467 ] ] ] } },
{ "type": "Feature", "properties": { "id": 195 }, "geometry": { "type": "Polygon", "coordinates": [ [ [ 321587.056979675544426, 4160557.776089529972523 ], [ 321571.326771287247539, 4160588.838533408008516 ], [ 321560.111551922047511, 4160583.159078873228282 ], [ 321575.841760310344398, 4160552.096634995192289 ], [ 321587.056979675544426, 4160557.776089529972523 ] ] ] } },
{ "type": "Feature", "properties": { "id": 196 }, "geometry": { "type": "Polygon", "coordinates": [ [ [ 322015.63146345410496, 4161623.838009960018098 ], [ 322008.185603430029005, 4161635.405687594786286 ], [ 321995.295226349961013, 4161627.108434989582747 ], [ 322002.741086374036968, 4161615.540757354814559 ], [ 322015.63146345410496, 4161623.838009960018098 ] ] ] } },
{ "type": "Feature", "properties": { "id": 197 }, "geometry": { "type": "Polygon", "coordinates": [ [ [ 322992.340580974705517, 4161131.005264039151371 ], [ 322978.951728090178221, 4161148.863751002121717 ], [ 322953.555213499348611, 4161129.823493093252182 ], [ 322966.944066383875906, 4161111.965006130281836 ], [ 322992.340580974705517, 4161131.005264039151371 ] ] ] } },
{ "type": "Feature", "properties": { "id": 198 }, "geometry": { "type": "Polygon", "coordinates": [ [ [ 324813.353894158499315, 4161152.513485008850694 ], [ 324802.30150876333937, 4161190.447718152776361 ], [ 324779.636653469409794, 4161183.84416524367407 ], [ 324790.689038864569739, 4161145.909932099748403 ], [ 324813.353894158499315, 4161152.513485008850694 ] ] ] } },
{ "type": "Feature", "properties": { "id": 199 }, "geometry": { "type": "Polygon", "coordinates": [ [ [ 320567.269788970705122, 4162479.761464437935501 ], [ 320547.533314945409074, 4162533.78078059758991 ], [ 320531.715090948622674, 4162528.001441108994186 ], [ 320551.451564973918721, 4162473.982124949339777 ], [ 320567.269788970705122, 4162479.761464437935501 ] ] ] } }
]
}
